{"type": "FeatureCollection", "features": [ {"type": "Feature", "properties": {"norad_id": 33799, "name": "COSMOS 2251 DEB", "group": "cosmos-2251-debris", "lat": 32.2117101992175, "lon": -89.83271437275666, "alt_km": 613.9779585236956, "timestamp": "2025-12-03T04:52:30.031184+00:00", "meta": {"OBJECT_NAME": "COSMOS 2251 DEB", "OBJECT_ID": "1993-036AQ", "EPOCH": "2025-12-02T19:01:32.837088", "MEAN_MOTION": 14.79295167, "ECCENTRICITY": 0.0024613, "INCLINATION": 74.0313, "RA_OF_ASC_NODE": 101.3679, "ARG_OF_PERICENTER": 174.6604, "MEAN_ANOMALY": 307.1207, "EPHEMERIS_TYPE": 0, "CLASSIFICATION_TYPE": "U", "NORAD_CAT_ID": 33799, "ELEMENT_SET_NO": 999, "REV_AT_EPOCH": 88664, "BSTAR": 0.0023522, "MEAN_MOTION_DOT": 0.00017603, "MEAN_MOTION_DDOT": 0}, "tle": {"line1": "1 33799U 93036AQ  25336.79274117  .00017603  00000+0  23522-2 0  9991", "line2": "2 33799  74.0313 101.3679 0024613 174.6604 307.1207 14.79295167886645"}}, "geometry": {"type": "Point", "coordinates": [-89.83271437275666, 32.2117101992175]}}, {"type": "Feature", "properties": {"norad_id": 33805, "name": "COSMOS 2251 DEB", "group": "cosmos-2251-debris", "lat": -53.866858785113685, "lon": -53.61853070998953, "alt_km": 740.5157883661795, "timestamp": "2025-12-03T04:52:30.031195+00:00", "meta": {"OBJECT_NAME": "COSMOS 2251 DEB", "OBJECT_ID": "1993-036AW", "EPOCH": "2025-12-02T15:57:49.934592", "MEAN_MOTION": 14.5781726, "ECCENTRICITY": 0.006064, "INCLINATION": 74.0305, "RA_OF_ASC_NODE": 330.497, "ARG_OF_PERICENTER": 162.2777, "MEAN_ANOMALY": 198.0522, "EPHEMERIS_TYPE": 0, "CLASSIFICATION_TYPE": "U", "NORAD_CAT_ID": 33805, "ELEMENT_SET_NO": 999, "REV_AT_EPOCH": 89080, "BSTAR": 0.00032446, "MEAN_MOTION_DOT": 1.492e-05, "MEAN_MOTION_DDOT": 0}, "tle": {"line1": "1 33805U 93036AW  25336.66516128  .00001492  00000+0  32446-3 0  9991", "line2": "2 33805  74.0305 330.4970 0060640 162.2777 198.0522 14.57817260890807"}}, "geometry": {"type": "Point", "coordinates": [-53.61853070998953, -53.866858785113685]}}, {"type": "Feature", "properties": {"norad_id": 33811, "name": "COSMOS 2251 DEB", "group": "cosmos-2251-debris", "lat": -8.346376227016613, "lon": -40.00895827935617, "alt_km": 543.0667607536716, "timestamp": "2025-12-03T04:52:30.031205+00:00", "meta": {"OBJECT_NAME": "COSMOS 2251 DEB", "OBJECT_ID": "1993-036BC", "EPOCH": "2025-12-02T10:28:15.324672", "MEAN_MOTION": 15.04746255, "ECCENTRICITY": 0.00306492, "INCLINATION": 73.8375, "RA_OF_ASC_NODE": 324.018, "ARG_OF_PERICENTER": 46.2412, "MEAN_ANOMALY": 113.1447, "EPHEMERIS_TYPE": 0, "CLASSIFICATION_TYPE": "U", "NORAD_CAT_ID": 33811, "ELEMENT_SET_NO": 999, "REV_AT_EPOCH": 89863, "BSTAR": 0.0016893353, "MEAN_MOTION_DOT": 0.00024105, "MEAN_MOTION_DDOT": 0}, "tle": {"line1": "1 33811U 93036BC  25336.43628848  .00024105  00000+0  16893-2 0  9999", "line2": "2 33811  73.8375 324.0180 0030649  46.2412 113.1447 15.04746255898634"}}, "geometry": {"type": "Point", "coordinates": [-40.00895827935617, -8.346376227016613]}}, {"type": "Feature", "properties": {"norad_id": 33815, "name": "COSMOS 2251 DEB", "group": "cosmos-2251-debris", "lat": 29.64804560336004, "lon": -154.01192599867008, "alt_km": 522.7124284819502, "timestamp": "2025-12-03T04:52:30.031216+00:00", "meta": {"OBJECT_NAME": "COSMOS 2251 DEB", "OBJECT_ID": "1993-036BG", "EPOCH": "2025-12-02T16:18:27.107424", "MEAN_MOTION": 15.14565673, "ECCENTRICITY": 0.0004573, "INCLINATION": 73.956, "RA_OF_ASC_NODE": 197.654, "ARG_OF_PERICENTER": 247.3813, "MEAN_ANOMALY": 169.63, "EPHEMERIS_TYPE": 0, "CLASSIFICATION_TYPE": "U", "NORAD_CAT_ID": 33815, "ELEMENT_SET_NO": 999, "REV_AT_EPOCH": 88218, "BSTAR": 0.0066032, "MEAN_MOTION_DOT": 0.00123948, "MEAN_MOTION_DDOT": 0}, "tle": {"line1": "1 33815U 93036BG  25336.67948041  .00123948  00000+0  66032-2 0  9994", "line2": "2 33815  73.9560 197.6540 0004573 247.3813 169.6300 15.14565673882186"}}, "geometry": {"type": "Point", "coordinates": [-154.01192599867008, 29.64804560336004]}}, {"type": "Feature", "properties": {"norad_id": 33816, "name": "COSMOS 2251 DEB", "group": "cosmos-2251-debris", "lat": -11.292892444332475, "lon": -55.13363078063527, "alt_km": 847.2948661220698, "timestamp": "2025-12-03T04:52:30.031226+00:00", "meta": {"OBJECT_NAME": "COSMOS 2251 DEB", "OBJECT_ID": "1993-036BH", "EPOCH": "2025-12-02T19:17:05.120736", "MEAN_MOTION": 13.817588, "ECCENTRICITY": 0.0265327, "INCLINATION": 73.8936, "RA_OF_ASC_NODE": 122.2358, "ARG_OF_PERICENTER": 137.0947, "MEAN_ANOMALY": 225.1215, "EPHEMERIS_TYPE": 0, "CLASSIFICATION_TYPE": "U", "NORAD_CAT_ID": 33816, "ELEMENT_SET_NO": 999, "REV_AT_EPOCH": 84536, "BSTAR": 0.0007319, "MEAN_MOTION_DOT": 1.002e-05, "MEAN_MOTION_DDOT": 0}, "tle": {"line1": "1 33816U 93036BH  25336.80353149  .00001002  00000+0  73190-3 0  9999", "line2": "2 33816  73.8936 122.2358 0265327 137.0947 225.1215 13.81758800845363"}}, "geometry": {"type": "Point", "coordinates": [-55.13363078063527, -11.292892444332475]}}, {"type": "Feature", "properties": {"norad_id": 33818, "name": "COSMOS 2251 DEB", "group": "cosmos-2251-debris", "lat": 65.29066648231397, "lon": -135.71137189162522, "alt_km": 531.0283787649141, "timestamp": "2025-12-03T04:52:30.031237+00:00", "meta": {"OBJECT_NAME": "COSMOS 2251 DEB", "OBJECT_ID": "1993-036BK", "EPOCH": "2025-12-02T16:07:04.079136", "MEAN_MOTION": 15.11339515, "ECCENTRICITY": 0.00292809, "INCLINATION": 74.0757, "RA_OF_ASC_NODE": 187.0334, "ARG_OF_PERICENTER": 178.854, "MEAN_ANOMALY": 241.5026, "EPHEMERIS_TYPE": 0, "CLASSIFICATION_TYPE": "U", "NORAD_CAT_ID": 33818, "ELEMENT_SET_NO": 999, "REV_AT_EPOCH": 89710, "BSTAR": 0.0024031402, "MEAN_MOTION_DOT": 0.00041133, "MEAN_MOTION_DDOT": 0}, "tle": {"line1": "1 33818U 93036BK  25336.67157499  .00041133  00000+0  24031-2 0  9994", "line2": "2 33818  74.0757 187.0334 0029280 178.8540 241.5026 15.11339515897104"}}, "geometry": {"type": "Point", "coordinates": [-135.71137189162522, 65.29066648231397]}}, {"type": "Feature", "properties": {"norad_id": 33819, "name": "COSMOS 2251 DEB", "group": "cosmos-2251-debris", "lat": 47.372972875914634, "lon": -114.96431542316905, "alt_km": 732.0528031124359, "timestamp": "2025-12-03T04:52:30.031247+00:00", "meta": {"OBJECT_NAME": "COSMOS 2251 DEB", "OBJECT_ID": "1993-036BL", "EPOCH": "2025-12-02T18:54:35.162208", "MEAN_MOTION": 14.32164557, "ECCENTRICITY": 0.0088728, "INCLINATION": 74.1798, "RA_OF_ASC_NODE": 227.8446, "ARG_OF_PERICENTER": 92.2641, "MEAN_ANOMALY": 338.4476, "EPHEMERIS_TYPE": 0, "CLASSIFICATION_TYPE": "U", "NORAD_CAT_ID": 33819, "ELEMENT_SET_NO": 999, "REV_AT_EPOCH": 87353, "BSTAR": 0.0008464, "MEAN_MOTION_DOT": 2.356e-05, "MEAN_MOTION_DDOT": 0}, "tle": {"line1": "1 33819U 93036BL  25336.78790697  .00002356  00000+0  84640-3 0  9997", "line2": "2 33819  74.1798 227.8446 0088728  92.2641 338.4476 14.32164557873531"}}, "geometry": {"type": "Point", "coordinates": [-114.96431542316905, 47.372972875914634]}}, {"type": "Feature", "properties": {"norad_id": 33821, "name": "COSMOS 2251 DEB", "group": "cosmos-2251-debris", "lat": 29.845029026702367, "lon": -26.47290932370867, "alt_km": 466.66652370329484, "timestamp": "2025-12-03T04:52:30.031257+00:00", "meta": {"OBJECT_NAME": "COSMOS 2251 DEB", "OBJECT_ID": "1993-036BN", "EPOCH": "2025-12-02T20:20:47.736672", "MEAN_MOTION": 15.24418804, "ECCENTRICITY": 0.0054422, "INCLINATION": 74.0299, "RA_OF_ASC_NODE": 163.7342, "ARG_OF_PERICENTER": 199.886, "MEAN_ANOMALY": 160.022, "EPHEMERIS_TYPE": 0, "CLASSIFICATION_TYPE": "U", "NORAD_CAT_ID": 33821, "ELEMENT_SET_NO": 999, "REV_AT_EPOCH": 74850, "BSTAR": 0.0013229, "MEAN_MOTION_DOT": 0.00033956, "MEAN_MOTION_DDOT": 0}, "tle": {"line1": "1 33821U 93036BN  25336.84777473  .00033956  00000+0  13229-2 0  9998", "line2": "2 33821  74.0299 163.7342 0054422 199.8860 160.0220 15.24418804748506"}}, "geometry": {"type": "Point", "coordinates": [-26.47290932370867, 29.845029026702367]}}, {"type": "Feature", "properties": {"norad_id": 33822, "name": "COSMOS 2251 DEB", "group": "cosmos-2251-debris", "lat": 6.944371080317678, "lon": 28.523823687769454, "alt_km": 842.0273766298269, "timestamp": "2025-12-03T04:52:30.031268+00:00", "meta": {"OBJECT_NAME": "COSMOS 2251 DEB", "OBJECT_ID": "1993-036BP", "EPOCH": "2025-12-02T03:09:17.363808", "MEAN_MOTION": 14.12986397, "ECCENTRICITY": 0.01540583, "INCLINATION": 74.0703, "RA_OF_ASC_NODE": 212.4081, "ARG_OF_PERICENTER": 261.1851, "MEAN_ANOMALY": 224.0386, "EPHEMERIS_TYPE": 0, "CLASSIFICATION_TYPE": "U", "NORAD_CAT_ID": 33822, "ELEMENT_SET_NO": 999, "REV_AT_EPOCH": 85904, "BSTAR": 0.0014509558, "MEAN_MOTION_DOT": 3.003e-05, "MEAN_MOTION_DDOT": 0}, "tle": {"line1": "1 33822U 93036BP  25336.13145097  .00003003  00000+0  14510-2 0  9996", "line2": "2 33822  74.0703 212.4081 0154058 261.1851 224.0386 14.12986397859047"}}, "geometry": {"type": "Point", "coordinates": [28.523823687769454, 6.944371080317678]}}, {"type": "Feature", "properties": {"norad_id": 33823, "name": "COSMOS 2251 DEB", "group": "cosmos-2251-debris", "lat": 56.55347278725466, "lon": -40.05104122235276, "alt_km": 1042.8946941031136, "timestamp": "2025-12-03T04:52:30.031278+00:00", "meta": {"OBJECT_NAME": "COSMOS 2251 DEB", "OBJECT_ID": "1993-036BQ", "EPOCH": "2025-12-02T19:47:26.588256", "MEAN_MOTION": 13.98910614, "ECCENTRICITY": 0.020925, "INCLINATION": 73.8087, "RA_OF_ASC_NODE": 166.7067, "ARG_OF_PERICENTER": 293.4654, "MEAN_ANOMALY": 80.9551, "EPHEMERIS_TYPE": 0, "CLASSIFICATION_TYPE": "U", "NORAD_CAT_ID": 33823, "ELEMENT_SET_NO": 999, "REV_AT_EPOCH": 85471, "BSTAR": 0.00089694, "MEAN_MOTION_DOT": 1.534e-05, "MEAN_MOTION_DDOT": 0}, "tle": {"line1": "1 33823U 93036BQ  25336.82461329  .00001534  00000+0  89694-3 0  9995", "line2": "2 33823  73.8087 166.7067 0209250 293.4654  80.9551 13.98910614854713"}}, "geometry": {"type": "Point", "coordinates": [-40.05104122235276, 56.55347278725466]}}]}